{
  "links" : {
    "next" : "https://api.nasa.gov/neo/rest/v1/feed?start_date=1999-07-09&end_date=1999-07-09&detailed=true&api_key=t0TVs3DtDT2H8Oy2Zy8m2eVrNsAVKAexjcZXUckd",
    "prev" : "https://api.nasa.gov/neo/rest/v1/feed?start_date=1999-07-07&end_date=1999-07-07&detailed=true&api_key=t0TVs3DtDT2H8Oy2Zy8m2eVrNsAVKAexjcZXUckd",
    "self" : "https://api.nasa.gov/neo/rest/v1/feed?start_date=1999-07-08&end_date=1999-07-08&detailed=true&api_key=t0TVs3DtDT2H8Oy2Zy8m2eVrNsAVKAexjcZXUckd"
  },
  "element_count" : 3,
  "near_earth_objects" : {
    "1999-07-08" : [ {
      "links" : {
        "self" : "https://api.nasa.gov/neo/rest/v1/neo/3644834?api_key=t0TVs3DtDT2H8Oy2Zy8m2eVrNsAVKAexjcZXUckd"
      },
      "neo_reference_id" : "3644834",
      "name" : "(2013 NP11)",
      "nasa_jpl_url" : "http://ssd.jpl.nasa.gov/sbdb.cgi?sstr=3644834",
      "absolute_magnitude_h" : 21.4,
      "estimated_diameter" : {
        "kilometers" : {
          "estimated_diameter_min" : 0.1394938229,
          "estimated_diameter_max" : 0.3119176705
        },
        "meters" : {
          "estimated_diameter_min" : 139.4938229344,
          "estimated_diameter_max" : 311.9176705226
        },
        "miles" : {
          "estimated_diameter_min" : 0.0866774163,
          "estimated_diameter_max" : 0.1938165949
        },
        "feet" : {
          "estimated_diameter_min" : 457.6569140361,
          "estimated_diameter_max" : 1023.3519701574
        }
      },
      "is_potentially_hazardous_asteroid" : false,
      "close_approach_data" : [ {
        "close_approach_date" : "1999-07-08",
        "epoch_date_close_approach" : 931417200000,
        "relative_velocity" : {
          "kilometers_per_second" : "19.4198606608",
          "kilometers_per_hour" : "69911.4983787418",
          "miles_per_hour" : "43440.2863120576"
        },
        "miss_distance" : {
          "astronomical" : "0.4710476255",
          "lunar" : "183.2375335693",
          "kilometers" : "70467728",
          "miles" : "43786612"
        },
        "orbiting_body" : "Earth"
      } ],
      "orbital_data" : {
        "orbit_id" : "33",
        "orbit_determination_date" : "2017-04-06 08:45:25",
        "orbit_uncertainty" : "4",
        "minimum_orbit_intersection" : ".133133",
        "jupiter_tisserand_invariant" : "4.798",
        "epoch_osculation" : "2458000.5",
        "eccentricity" : ".2326407798613136",
        "semi_major_axis" : "1.348291039698383",
        "inclination" : "18.59614637928857",
        "ascending_node_longitude" : "284.2091396248748",
        "orbital_period" : "571.8391685908417",
        "perihelion_distance" : "1.03462356074293",
        "perihelion_argument" : "68.09406144072709",
        "aphelion_distance" : "1.661958518653836",
        "perihelion_time" : "2458269.187862880278",
        "mean_anomaly" : "190.8481895787904",
        "mean_motion" : ".6295476416684297",
        "equinox" : "J2000"
      }
    }, {
      "links" : {
        "self" : "https://api.nasa.gov/neo/rest/v1/neo/3711784?api_key=t0TVs3DtDT2H8Oy2Zy8m2eVrNsAVKAexjcZXUckd"
      },
      "neo_reference_id" : "3711784",
      "name" : "(2015 DO155)",
      "nasa_jpl_url" : "http://ssd.jpl.nasa.gov/sbdb.cgi?sstr=3711784",
      "absolute_magnitude_h" : 21.5,
      "estimated_diameter" : {
        "kilometers" : {
          "estimated_diameter_min" : 0.1332155667,
          "estimated_diameter_max" : 0.2978790628
        },
        "meters" : {
          "estimated_diameter_min" : 133.2155666981,
          "estimated_diameter_max" : 297.8790627982
        },
        "miles" : {
          "estimated_diameter_min" : 0.0827762899,
          "estimated_diameter_max" : 0.1850934111
        },
        "feet" : {
          "estimated_diameter_min" : 437.0589598459,
          "estimated_diameter_max" : 977.2935443908
        }
      },
      "is_potentially_hazardous_asteroid" : false,
      "close_approach_data" : [ {
        "close_approach_date" : "1999-07-08",
        "epoch_date_close_approach" : 931417200000,
        "relative_velocity" : {
          "kilometers_per_second" : "12.0949980438",
          "kilometers_per_hour" : "43541.9929578449",
          "miles_per_hour" : "27055.3011242787"
        },
        "miss_distance" : {
          "astronomical" : "0.1999211845",
          "lunar" : "77.7693405151",
          "kilometers" : "29907784",
          "miles" : "18583836"
        },
        "orbiting_body" : "Earth"
      } ],
      "orbital_data" : {
        "orbit_id" : "40",
        "orbit_determination_date" : "2017-04-06 08:35:30",
        "orbit_uncertainty" : "4",
        "minimum_orbit_intersection" : ".134638",
        "jupiter_tisserand_invariant" : "4.038",
        "epoch_osculation" : "2458000.5",
        "eccentricity" : ".4254356288916417",
        "semi_major_axis" : "1.729740900584815",
        "inclination" : "9.314481674516507",
        "ascending_node_longitude" : "151.3544943204374",
        "orbital_period" : "830.9406566304277",
        "perihelion_distance" : ".9938474927249197",
        "perihelion_argument" : "83.89402812775269",
        "aphelion_distance" : "2.46563430844471",
        "perihelion_time" : "2457981.584433363814",
        "mean_anomaly" : "8.195054526084855",
        "mean_motion" : ".4332439352045268",
        "equinox" : "J2000"
      }
    }, {
      "links" : {
        "self" : "https://api.nasa.gov/neo/rest/v1/neo/3773594?api_key=t0TVs3DtDT2H8Oy2Zy8m2eVrNsAVKAexjcZXUckd"
      },
      "neo_reference_id" : "3773594",
      "name" : "(2017 FN127)",
      "nasa_jpl_url" : "http://ssd.jpl.nasa.gov/sbdb.cgi?sstr=3773594",
      "absolute_magnitude_h" : 25.793,
      "estimated_diameter" : {
        "kilometers" : {
          "estimated_diameter_min" : 0.0184482416,
          "estimated_diameter_max" : 0.0412515222
        },
        "meters" : {
          "estimated_diameter_min" : 18.4482415599,
          "estimated_diameter_max" : 41.2515221932
        },
        "miles" : {
          "estimated_diameter_min" : 0.0114632023,
          "estimated_diameter_max" : 0.0256324996
        },
        "feet" : {
          "estimated_diameter_min" : 60.5257288393,
          "estimated_diameter_max" : 135.3396440724
        }
      },
      "is_potentially_hazardous_asteroid" : false,
      "close_approach_data" : [ {
        "close_approach_date" : "1999-07-08",
        "epoch_date_close_approach" : 931417200000,
        "relative_velocity" : {
          "kilometers_per_second" : "14.7771231427",
          "kilometers_per_hour" : "53197.6433137286",
          "miles_per_hour" : "33054.946757911"
        },
        "miss_distance" : {
          "astronomical" : "0.2629630213",
          "lunar" : "102.2926177979",
          "kilometers" : "39338708",
          "miles" : "24443940"
        },
        "orbiting_body" : "Earth"
      } ],
      "orbital_data" : {
        "orbit_id" : "2",
        "orbit_determination_date" : "2017-04-06 08:18:56",
        "orbit_uncertainty" : "6",
        "minimum_orbit_intersection" : ".0227205",
        "jupiter_tisserand_invariant" : "6.354",
        "epoch_osculation" : "2458000.5",
        "eccentricity" : ".2821555233074357",
        "semi_major_axis" : ".9373489228351275",
        "inclination" : "9.543367993332907",
        "ascending_node_longitude" : "176.9654350856323",
        "orbital_period" : "331.4746752842175",
        "perihelion_distance" : ".672870746990921",
        "perihelion_argument" : "233.4147843379444",
        "aphelion_distance" : "1.201827098679334",
        "perihelion_time" : "2458071.689784807921",
        "mean_anomaly" : "282.6839199438779",
        "mean_motion" : "1.08605581917027",
        "equinox" : "J2000"
      }
    } ]
  }
}